{
  "type": "FeatureCollection",
  "features": [
    {
      "type": "Feature",
      "properties": {
        "norad_id": 42917,
        "name": "QZS-3 (QZSS/PRN 199)",
        "group": "gnss",
        "lat": -0.03685415006628889,
        "lon": 146.3282008108289,
        "alt_km": 35791.131533056105,
        "timestamp": "2025-12-16T19:34:24.509808+00:00",
        "meta_object_name": "QZS-3 (QZSS/PRN 199)",
        "meta_object_id": "2017-048A",
        "meta_epoch": "2025-12-15T20:50:23.404416",
        "meta_mean_motion": 1.00270763,
        "meta_eccentricity": 0.00018511,
        "meta_inclination": 0.0645,
        "meta_ra_of_asc_node": 181.5137,
        "meta_arg_of_pericenter": 91.0208,
        "meta_mean_anomaly": 251.8887,
        "meta_ephemeris_type": 0,
        "meta_classification_type": "U",
        "meta_norad_cat_id": 42917,
        "meta_element_set_no": 999,
        "meta_rev_at_epoch": 3042,
        "meta_bstar": 0,
        "meta_mean_motion_dot": -3.25e-06,
        "meta_mean_motion_ddot": 0,
        "tle_line1": "1 42917U 17048A   25349.86832644 -.00000325  00000+0  00000+0 0  9996",
        "tle_line2": "2 42917   0.0645 181.5137 0001851  91.0208 251.8887  1.00270763 30425"
      },
      "geometry": {
        "type": "Point",
        "coordinates": [
          146.3282008108289,
          -0.03685415006628889
        ]
      }
    },
    {
      "type": "Feature",
      "properties": {
        "norad_id": 42939,
        "name": "COSMOS 2522 (752)",
        "group": "gnss",
        "lat": 0.26519565019669805,
        "lon": 17.964664615806043,
        "alt_km": 19118.748101825204,
        "timestamp": "2025-12-16T19:34:24.509822+00:00",
        "meta_object_name": "COSMOS 2522 (752)",
        "meta_object_id": "2017-055A",
        "meta_epoch": "2025-12-15T04:09:48.799872",
        "meta_mean_motion": 2.13102036,
        "meta_eccentricity": 0.00063989,
        "meta_inclination": 64.076,
        "meta_ra_of_asc_node": 198.1461,
        "meta_arg_of_pericenter": 224.2568,
        "meta_mean_anomaly": 135.7703,
        "meta_ephemeris_type": 0,
        "meta_classification_type": "U",
        "meta_norad_cat_id": 42939,
        "meta_element_set_no": 999,
        "meta_rev_at_epoch": 6405,
        "meta_bstar": 0,
        "meta_mean_motion_dot": 1.03e-06,
        "meta_mean_motion_ddot": 0,
        "tle_line1": "1 42939U 17055A   25349.17348148  .00000103  00000+0  00000+0 0  9996",
        "tle_line2": "2 42939  64.0760 198.1461 0006398 224.2568 135.7703  2.13102036 64056"
      },
      "geometry": {
        "type": "Point",
        "coordinates": [
          17.964664615806043,
          0.26519565019669805
        ]
      }
    },
    {
      "type": "Feature",
      "properties": {
        "norad_id": 42965,
        "name": "QZS-4 (QZSS/PRN 195)",
        "group": "gnss",
        "lat": 11.94111183236041,
        "lon": 151.31788136726033,
        "alt_km": 36680.928692542424,
        "timestamp": "2025-12-16T19:34:24.509834+00:00",
        "meta_object_name": "QZS-4 (QZSS/PRN 195)",
        "meta_object_id": "2017-062A",
        "meta_epoch": "2025-12-15T20:50:38.380128",
        "meta_mean_motion": 1.00252314,
        "meta_eccentricity": 0.07516338,
        "meta_inclination": 40.2242,
        "meta_ra_of_asc_node": 345.8306,
        "meta_arg_of_pericenter": 271.6216,
        "meta_mean_anomaly": 276.1231,
        "meta_ephemeris_type": 0,
        "meta_classification_type": "U",
        "meta_norad_cat_id": 42965,
        "meta_element_set_no": 999,
        "meta_rev_at_epoch": 2996,
        "meta_bstar": 0,
        "meta_mean_motion_dot": -3.51e-06,
        "meta_mean_motion_ddot": 0,
        "tle_line1": "1 42965U 17062A   25349.86849977 -.00000351  00000+0  00000+0 0  9991",
        "tle_line2": "2 42965  40.2242 345.8306 0751633 271.6216 276.1231  1.00252314 29967"
      },
      "geometry": {
        "type": "Point",
        "coordinates": [
          151.31788136726033,
          11.94111183236041
        ]
      }
    },
    {
      "type": "Feature",
      "properties": {
        "norad_id": 43001,
        "name": "BEIDOU-3 M1 (C19)",
        "group": "gnss",
        "lat": 11.906470857667502,
        "lon": -118.89689492751035,
        "alt_km": 21545.881649827304,
        "timestamp": "2025-12-16T19:34:24.509846+00:00",
        "meta_object_name": "BEIDOU-3 M1 (C19)",
        "meta_object_id": "2017-069A",
        "meta_epoch": "2025-12-14T22:58:39.271008",
        "meta_mean_motion": 1.86231328,
        "meta_eccentricity": 0.00093773,
        "meta_inclination": 56.5292,
        "meta_ra_of_asc_node": 69.1601,
        "meta_arg_of_pericenter": 302.6991,
        "meta_mean_anomaly": 57.229,
        "meta_ephemeris_type": 0,
        "meta_classification_type": "U",
        "meta_norad_cat_id": 43001,
        "meta_element_set_no": 999,
        "meta_rev_at_epoch": 5517,
        "meta_bstar": 0,
        "meta_mean_motion_dot": -8.3e-07,
        "meta_mean_motion_ddot": 0,
        "tle_line1": "1 43001U 17069A   25348.95739897 -.00000083  00000+0  00000+0 0  9990",
        "tle_line2": "2 43001  56.5292  69.1601 0009377 302.6991  57.2290  1.86231328 55175"
      },
      "geometry": {
        "type": "Point",
        "coordinates": [
          -118.89689492751035,
          11.906470857667502
        ]
      }
    },
    {
      "type": "Feature",
      "properties": {
        "norad_id": 43002,
        "name": "BEIDOU-3 M2 (C20)",
        "group": "gnss",
        "lat": -22.308956329914068,
        "lon": -95.12897221503106,
        "alt_km": 21541.194793854305,
        "timestamp": "2025-12-16T19:34:24.509857+00:00",
        "meta_object_name": "BEIDOU-3 M2 (C20)",
        "meta_object_id": "2017-069B",
        "meta_epoch": "2025-12-12T17:57:03.193632",
        "meta_mean_motion": 1.86230645,
        "meta_eccentricity": 0.00063664,
        "meta_inclination": 56.5266,
        "meta_ra_of_asc_node": 69.2696,
        "meta_arg_of_pericenter": 331.453,
        "meta_mean_anomaly": 28.5312,
        "meta_ephemeris_type": 0,
        "meta_classification_type": "U",
        "meta_norad_cat_id": 43002,
        "meta_element_set_no": 999,
        "meta_rev_at_epoch": 5512,
        "meta_bstar": 0,
        "meta_mean_motion_dot": -7.4e-07,
        "meta_mean_motion_ddot": 0,
        "tle_line1": "1 43002U 17069B   25346.74795363 -.00000074  00000+0  00000+0 0  9996",
        "tle_line2": "2 43002  56.5266  69.2696 0006366 331.4530  28.5312  1.86230645 55128"
      },
      "geometry": {
        "type": "Point",
        "coordinates": [
          -95.12897221503106,
          -22.308956329914068
        ]
      }
    },
    {
      "type": "Feature",
      "properties": {
        "norad_id": 43055,
        "name": "GSAT0215 (GALILEO 19)",
        "group": "gnss",
        "lat": 32.41532522297012,
        "lon": 20.279068520422854,
        "alt_km": 23221.42769358048,
        "timestamp": "2025-12-16T19:34:24.509868+00:00",
        "meta_object_name": "GSAT0215 (GALILEO 19)",
        "meta_object_id": "2017-079A",
        "meta_epoch": "2025-12-11T21:30:24.060384",
        "meta_mean_motion": 1.704739,
        "meta_eccentricity": 0.00012658,
        "meta_inclination": 55.1303,
        "meta_ra_of_asc_node": 226.661,
        "meta_arg_of_pericenter": 350.6161,
        "meta_mean_anomaly": 9.46,
        "meta_ephemeris_type": 0,
        "meta_classification_type": "U",
        "meta_norad_cat_id": 43055,
        "meta_element_set_no": 999,
        "meta_rev_at_epoch": 4979,
        "meta_bstar": 0,
        "meta_mean_motion_dot": 1.3e-07,
        "meta_mean_motion_ddot": 0,
        "tle_line1": "1 43055U 17079A   25345.89611181  .00000013  00000+0  00000+0 0  9997",
        "tle_line2": "2 43055  55.1303 226.6610 0001265 350.6161   9.4600  1.70473900 49794"
      },
      "geometry": {
        "type": "Point",
        "coordinates": [
          20.279068520422854,
          32.41532522297012
        ]
      }
    },
    {
      "type": "Feature",
      "properties": {
        "norad_id": 43056,
        "name": "GSAT0216 (GALILEO 20)",
        "group": "gnss",
        "lat": -31.548844389854338,
        "lon": -158.78873568439613,
        "alt_km": 23219.389360966943,
        "timestamp": "2025-12-16T19:34:24.509879+00:00",
        "meta_object_name": "GSAT0216 (GALILEO 20)",
        "meta_object_id": "2017-079B",
        "meta_epoch": "2025-12-13T08:39:13.176288",
        "meta_mean_motion": 1.70474029,
        "meta_eccentricity": 0.00023036,
        "meta_inclination": 55.1302,
        "meta_ra_of_asc_node": 226.6206,
        "meta_arg_of_pericenter": 326.735,
        "meta_mean_anomaly": 33.3311,
        "meta_ephemeris_type": 0,
        "meta_classification_type": "U",
        "meta_norad_cat_id": 43056,
        "meta_element_set_no": 999,
        "meta_rev_at_epoch": 4983,
        "meta_bstar": 0,
        "meta_mean_motion_dot": 2.3e-07,
        "meta_mean_motion_ddot": 0,
        "tle_line1": "1 43056U 17079B   25347.36056917  .00000023  00000+0  00000+0 0  9993",
        "tle_line2": "2 43056  55.1302 226.6206 0002303 326.7350  33.3311  1.70474029 49836"
      },
      "geometry": {
        "type": "Point",
        "coordinates": [
          -158.78873568439613,
          -31.548844389854338
        ]
      }
    }
  ]
}